#cP2012  3  5  0  0  0.00000000      96 ORBIT IGS08 HLM  IGS
## 1678  86400.00000000   900.00000000 55991 0.0000000000000
+   32   G01G02G03G04G05G06G07G08G09G10G11G12G13G14G15G16G17
+        G18G19G20G21G22G23G24G25G26G27G28G29G30G31G32  0  0
+          0  0  0  0  0  0  0  0  0  0  0  0  0  0  0  0  0
+          0  0  0  0  0  0  0  0  0  0  0  0  0  0  0  0  0
+          0  0  0  0  0  0  0  0  0  0  0  0  0  0  0  0  0
++         2  2  2  2  2  2  2  3  3  2  2  2  2  2  2  2  2
++         2  2  2  2  2  2  0  2  2  3  2  2  2  2  2  0  0
++         0  0  0  0  0  0  0  0  0  0  0  0  0  0  0  0  0
++         0  0  0  0  0  0  0  0  0  0  0  0  0  0  0  0  0
++         0  0  0  0  0  0  0  0  0  0  0  0  0  0  0  0  0
%c G  cc GPS ccc cccc cccc cccc cccc ccccc ccccc ccccc ccccc
%c cc cc ccc ccc cccc cccc cccc cccc ccccc ccccc ccccc ccccc
%f  1.2500000  1.025000000  0.00000000000  0.000000000000000
%f  0.0000000  0.000000000  0.00000000000  0.000000000000000
%i    0    0    0    0      0      0      0      0         0
%i    0    0    0    0      0      0      0      0         0
/* FINAL ORBIT COMBINATION FROM WEIGHTED AVERAGE OF:        
/* cod emr esa gfz grg jpl mit ngs sio                      
/* REFERENCED TO IGS TIME (IGST) AND TO WEIGHTED MEAN POLE: 
/* PCV:IGS08_1673 OL/AL:FES2004  NONE     Y  ORB:CMB CLK:CMB
*  2012  3  5 22 30  0.00000000
PG01 -22703.276930 -13286.388653   3737.109732    226.561143  6  5  6 102       
PG02   7768.181909  19966.671213  16114.721353    381.646103  8  5  6 122       
PG03  -1587.136385 -17062.915005 -20695.195111     18.416200  8  6  7 132       
PG04  -4188.203987  15739.548382  20681.947857    114.025269  7  9  6 102       
PG05   2744.615269  25216.364899  -7682.223154   -290.422068  9  6  8 125       
PG06   3800.054989 -17719.449053 -19193.314006     31.685706  8  6  7 114       
PG07 -21310.708619  -2773.932027 -15745.397833     62.120673 10  8  6 103       
PG08 -13577.903389   6740.795352 -21824.324870      0.737089  8  9  9 166       
PG09  21209.746493  15952.715205   -922.734556    142.852580 11  9 10 158       
PG10  -9825.819603  22469.461825   9430.793990    -31.254895  6  6  6  91       
PG11 -22502.173500 -13454.893653  -5576.894700   -238.790372  8  5  3 111       
PG12  11610.440013  13511.596630  19766.045895     56.199407  8  8  8 119       
PG13 -25593.090881   4927.848190   5203.907380    221.179784  9  7  3 114       
PG14  18050.203680 -15249.332270  12160.282674    196.118366  7  6  8 128       
PG15  16719.914037   7567.042339 -19280.349970    -92.286999 11  9  6 114       
PG16  -1125.661705 -25326.739851  -7341.344918   -226.188126  7  5  9 137       
PG17 -19759.663952  14920.770315   9445.473257    144.589210  8  7  7 113       
PG18  15594.249687  -8203.800659 -19425.109645    184.764473  7  9  9 137       
PG19 -13624.860811 -10469.959522 -20387.691207   -242.566109  8  7  5 143       
PG20 -14410.896242  -9287.822165  20139.348858     63.237025  8  8  6 147       
PG21  19773.471004  -1448.716136 -17471.792761   -208.719020  7  7  7 137       
PG22  10545.030749 -21937.827723 -10314.600900    143.031643  4  7  9 108       
PG23 -22138.901276  -1910.783941  14842.708929    226.949050 10  8  3 113       
PG24   7737.990261 -24233.498508   7207.798902 999999.999999
PG25  15177.068465  -1158.790173  21738.959537     32.045474  7  6  4 141       
PG26   2495.761278  14900.865415 -22434.829013   -110.802330  8  7  5 116       
PG27  18617.239681  17889.676132  -6556.719177    363.712626 11  9 10  86       
PG28 -11679.224206  19853.901557 -12468.189576    119.529489  5  7  8 131       
PG29  25106.703662  -3993.454127   7683.008603    290.949151  8  6  7 138       
PG30   2289.199722 -26256.484541   2887.701749    -70.943490  5  6  7 133       
PG31   3280.315305 -15538.366240  21443.779281    216.062130  6  7  7 138       
PG32  -9076.410528 -18211.091868  17532.271736   -416.452591  8  7  5 115       
*  2012  3  5 22 45  0.00000000
PG01 -22781.612828 -13645.688961    899.146332    226.568391  6  5  7 115       
PG02   6082.227475  19049.196957  17822.806190    381.647382  8  6  5 120       
PG03    354.737680 -18184.505015 -19729.246891     18.421369  8  7  7 134       
PG04  -6252.480617  14405.459642  21151.831906    114.035491  7  9  7 112       
PG05   2410.899453  25917.055789  -4963.220788   -290.426149  8  6  8 136       
PG06   5775.193193 -18603.783800 -17798.097055     31.686244  8  6  8 116       
PG07 -22592.469231  -3856.232893 -13608.520299     62.123208 10  8  6 113       
PG08 -15443.473062   5156.666334 -21053.168212      0.736813  8 10  9 166       
PG09  20932.303948  15990.474170  -3811.034518    142.855395 11  9 10 116       
PG10  -9990.024993  21178.248664  11899.207310    -31.256456  7  6  6  79       
PG11 -21667.687471 -13590.688002  -8112.704994   -238.793621  9  5  3 109       
PG12  11299.873281  15659.591272  18323.904002     56.201301  8  8  8 114       
PG13 -24932.454878   4502.433318   7973.354985    221.177851  8  7  3 107       
PG14  19254.940006 -15537.991001   9638.920838    196.119338  8  6  8 125       
PG15  14743.461715   8681.003571 -20373.731695    -92.286428 11  9  6 111       
PG16   -827.742015 -25982.271274  -4539.138078   -226.189415  6  5  9 142       
PG17 -20695.481840  15059.628045   6779.122055    144.587020  9  7  7 112       
PG18  15516.664218  -5837.989600 -20338.562744    184.766036  8  9  8 139       
PG19 -11429.787859 -11353.047210 -21214.193059   -242.569830  8  6  5 140       
PG20 -14203.755688 -11567.147108  19093.893886     63.237598  8  8  6 144       
PG21  21283.795064   -169.002188 -15770.627030   -208.721330  7  7  7 134       
PG22  10724.534446 -20566.556281 -12660.420818    143.031723  5  8  9 123       
PG23 -20575.525486  -2801.132786  16792.184452    226.946066  9  8  3 113       
PG24   7875.253215 -23223.202946   9866.036878 999999.999999
PG25  15019.645879   1333.149117  21842.575026     32.045687  7  6  4 140       
PG26    230.385171  15714.165498 -21966.955807   -110.854989  8  7  5 122       
PG27  17712.301587  17509.012628  -9235.583207 999999.999999
PG28 -11662.296372  18197.091857 -14730.029069    119.533175  6  8  8 127       
PG29  24256.801430  -3383.783403  10290.801028    290.952594  8  6  7 142       
PG30   2562.766887 -25732.241524   5683.240971    -70.958672  5  6  7 138       
PG31   5297.424714 -14161.170549  22012.990036    216.066511  6  7  7 139       
PG32  -8624.039719 -20012.144098  15719.905351   -416.457151  8  7  5 110       
*  2012  3  5 23  0  0.00000000
PG01 -22601.932075 -13835.484499  -1954.276876    226.575621  6  4  7 124       
PG02   4199.472173  18128.250355  19231.866272    381.648778  8  6  5 116       
PG03   2143.457886 -19325.666187 -18434.064711     18.425182  9  7  8 142       
PG04  -8403.092627  13156.031284  21248.759550    114.045485  7  9  7 111       
PG05   2118.296454  26320.636647  -2158.195625   -290.429970  7  6  8 130       
PG06   7557.438627 -19488.196794 -16090.525582     31.686528  8  6  8 108       
PG07 -23714.920483  -4731.377770 -11239.914147     62.126078 10  8  7 107       
PG08 -17307.541254   3751.514810 -19921.942384      0.737222  9 10  9 165       
PG09  20381.467633  15877.633379  -6634.199501    142.857906 11  9 10  30       
PG10 -10206.124411  19625.849279  14155.891640    -31.257881  7  7  7  77       
PG11 -20579.347630 -13684.196793 -10513.112553   -238.796982  9  5  4  92       
PG12  11115.858934  17639.506889  16568.585485     56.203224  7  8  8 112       
PG13 -24016.029347   3915.167945  10605.564073    221.175972  8  7  4  92       
PG14  20176.543603 -15765.301954   6951.559495    196.120604  8  7  8 117       
PG15  12734.038342   9945.458153 -21118.290214    -92.286148 11  9  6 113       
PG16   -584.689142 -26328.625050  -1657.280118   -226.190932  6  4  9 142       
PG17 -21348.184894  15105.733829   3995.016985    144.585054  9  7  7 110       
PG18  15545.009280  -3389.735694 -20889.096324    184.767568  8  9  8 136       
PG19  -9214.313744 -12380.950770 -21678.834348   -242.572912  7  6  5 139       
PG20 -14101.189762 -13715.042469  17716.128378     63.238507  9  8  6 142       
PG21  22671.937240    922.476869 -13795.876373   -208.723821  7  7  7 125       
PG22  10958.830407 -18951.129824 -14784.996599    143.031596  5  8  8 129       
PG23 -18880.684805  -3870.177915  18457.349422    226.942970  9  8  3 133       
PG24   8060.243424 -21928.002817  12352.000795 999999.999999
PG25  14994.763942   3819.794873  21569.575392     32.045948  7  6  4 141       
PG26  -1924.213991  16628.105175 -21139.629260   -110.907542  8  7  5 108       
PG27  16522.628605  17039.694062 -11755.475518 999999.999999
PG28 -11719.176017  16292.936685 -16726.439376    119.536701  6  8  8 132       
PG29  23184.851205  -2604.081726  12721.601676    290.955788  8  6  7 137       
PG30   2891.209166 -24910.642278   8380.003968    -70.973766  5  7  7 133       
PG31   7422.468056 -12877.107076  22209.560113    216.070399  7  8  7 137       
PG32  -8289.149716 -21617.973997  13646.220873   -416.461718  8  7  6 114       
EOF
